[{"OBJECT_NAME":"TEVEL2-4","OBJECT_ID":"2025-052D","EPOCH":"2026-03-09T16:39:37.129536","MEAN_MOTION":15.30925813,"ECCENTRICITY":0.0004733,"INCLINATION":97.4009,"RA_OF_ASC_NODE":325.1237,"ARG_OF_PERICENTER":95.3468,"MEAN_ANOMALY":264.8313,"EPHEMERIS_TYPE":0,"CLASSIFICATION_TYPE":"U","NORAD_CAT_ID":63213,"ELEMENT_SET_NO":999,"REV_AT_EPOCH":5487,"BSTAR":0.00070362503,"MEAN_MOTION_DOT":0.0002099,"MEAN_MOTION_DDOT":0},{"OBJECT_NAME":"STARLINK-33892","OBJECT_ID":"2025-091J","EPOCH":"2026-03-09T23:03:27.288864","MEAN_MOTION":15.27657143,"ECCENTRICITY":0.00032948,"INCLINATION":42.9994,"RA_OF_ASC_NODE":50.9928,"ARG_OF_PERICENTER":282.5447,"MEAN_ANOMALY":77.5036,"EPHEMERIS_TYPE":0,"CLASSIFICATION_TYPE":"U","NORAD_CAT_ID":63783,"ELEMENT_SET_NO":999,"REV_AT_EPOCH":4894,"BSTAR":0.0015133946,"MEAN_MOTION_DOT":0.00041722,"MEAN_MOTION_DDOT":0}]
